[{"OBJECT_NAME":"OBJECT F","OBJECT_ID":"2023-072F","EPOCH":"2026-03-09T23:31:37.259904","MEAN_MOTION":15.29470958,"ECCENTRICITY":0.00062878,"INCLINATION":97.5173,"RA_OF_ASC_NODE":265.798,"ARG_OF_PERICENTER":19.0017,"MEAN_ANOMALY":341.1456,"EPHEMERIS_TYPE":0,"CLASSIFICATION_TYPE":"U","NORAD_CAT_ID":56748,"ELEMENT_SET_NO":999,"REV_AT_EPOCH":15460,"BSTAR":0.00043416252,"MEAN_MOTION_DOT":0.00012341,"MEAN_MOTION_DDOT":0},{"OBJECT_NAME":"STARLINK-34847","OBJECT_ID":"2025-176P","EPOCH":"2026-03-09T10:49:04.341216","MEAN_MOTION":15.30216655,"ECCENTRICITY":0.00021248,"INCLINATION":53.1575,"RA_OF_ASC_NODE":153.8531,"ARG_OF_PERICENTER":153.8545,"MEAN_ANOMALY":206.2563,"EPHEMERIS_TYPE":0,"CLASSIFICATION_TYPE":"U","NORAD_CAT_ID":65211,"ELEMENT_SET_NO":999,"REV_AT_EPOCH":3308,"BSTAR":0.0010585297,"MEAN_MOTION_DOT":0.0003114,"MEAN_MOTION_DDOT":0}]
